CZ-2C R/B               
1 66548U 25266D   25333.60303721  .00011571  00000+0  36650-3 0  9995
2 66548  52.0551  33.8463 0085127 128.2643 232.6041 15.29736850  1606
ELECTRON KICK STAGE R/B 
1 66555U 25267B   25333.15968080  .00023723  00000+0  75919-3 0  9992
2 66555  42.0170 135.3216 0007727 318.0765  41.9480 15.31885694  1329
CZ-3B R/B               
1 66587U 25269B   25327.51390516  .00010320 -91384-6  49597-3 0  9990
2 66587  51.3768 174.0599 7525341 225.2938  41.2116  2.01516013    67
KSLV-II R/B             
1 66663U 25274P   25333.85993235  .00000720  00000+0  66213-4 0  9997
2 66663  97.7386 261.3266 0044184   1.5638 358.5714 14.97223001   483
