{
  "type": "FeatureCollection",
  "features": [
    {
      "type": "Feature",
      "properties": {
        "OBJECT_NAME": "CZ-2C R/B",
        "OBJECT_ID": "2025-266D",
        "EPOCH": "2025-11-29T14:28:22.414944",
        "MEAN_MOTION": 15.2973685,
        "ECCENTRICITY": 0.0085127,
        "INCLINATION": 52.0551,
        "RA_OF_ASC_NODE": 33.8463,
        "ARG_OF_PERICENTER": 128.2643,
        "MEAN_ANOMALY": 232.6041,
        "EPHEMERIS_TYPE": 0,
        "CLASSIFICATION_TYPE": "U",
        "NORAD_CAT_ID": 66548,
        "ELEMENT_SET_NO": 999,
        "REV_AT_EPOCH": 160,
        "BSTAR": 0.0003665,
        "MEAN_MOTION_DOT": 0.00011571,
        "MEAN_MOTION_DDOT": 0,
        "norad_id": 66548,
        "name": "CZ-2C R/B",
        "group": "last-30-days",
        "longitude_deg": NaN,
        "latitude_deg": NaN,
        "alt_km": NaN,
        "orbit_class": "HEO",
        "timestamp": "2025-11-30T04:52:16.835365+00:00"
      },
      "geometry": {
        "type": "Point",
        "coordinates": [
          NaN,
          NaN
        ]
      }
    },
    {
      "type": "Feature",
      "properties": {
        "OBJECT_NAME": "ELECTRON KICK STAGE R/B",
        "OBJECT_ID": "2025-267B",
        "EPOCH": "2025-11-29T03:49:56.421120",
        "MEAN_MOTION": 15.31885694,
        "ECCENTRICITY": 0.0007727,
        "INCLINATION": 42.017,
        "RA_OF_ASC_NODE": 135.3216,
        "ARG_OF_PERICENTER": 318.0765,
        "MEAN_ANOMALY": 41.948,
        "EPHEMERIS_TYPE": 0,
        "CLASSIFICATION_TYPE": "U",
        "NORAD_CAT_ID": 66555,
        "ELEMENT_SET_NO": 999,
        "REV_AT_EPOCH": 132,
        "BSTAR": 0.00075919205,
        "MEAN_MOTION_DOT": 0.00023723,
        "MEAN_MOTION_DDOT": 0,
        "norad_id": 66555,
        "name": "ELECTRON KICK STAGE R/B",
        "group": "last-30-days",
        "longitude_deg": NaN,
        "latitude_deg": NaN,
        "alt_km": NaN,
        "orbit_class": "HEO",
        "timestamp": "2025-11-30T04:52:16.835379+00:00"
      },
      "geometry": {
        "type": "Point",
        "coordinates": [
          NaN,
          NaN
        ]
      }
    },
    {
      "type": "Feature",
      "properties": {
        "OBJECT_NAME": "CZ-3B R/B",
        "OBJECT_ID": "2025-269B",
        "EPOCH": "2025-11-23T12:20:01.405824",
        "MEAN_MOTION": 2.01516013,
        "ECCENTRICITY": 0.75253415,
        "INCLINATION": 51.3768,
        "RA_OF_ASC_NODE": 174.0599,
        "ARG_OF_PERICENTER": 225.2938,
        "MEAN_ANOMALY": 41.2116,
        "EPHEMERIS_TYPE": 0,
        "CLASSIFICATION_TYPE": "U",
        "NORAD_CAT_ID": 66587,
        "ELEMENT_SET_NO": 999,
        "REV_AT_EPOCH": 6,
        "BSTAR": 0.00049596604,
        "MEAN_MOTION_DOT": 0.0001032,
        "MEAN_MOTION_DDOT": -9.13844e-07,
        "norad_id": 66587,
        "name": "CZ-3B R/B",
        "group": "last-30-days",
        "longitude_deg": NaN,
        "latitude_deg": NaN,
        "alt_km": NaN,
        "orbit_class": "HEO",
        "timestamp": "2025-11-30T04:52:16.835575+00:00"
      },
      "geometry": {
        "type": "Point",
        "coordinates": [
          NaN,
          NaN
        ]
      }
    },
    {
      "type": "Feature",
      "properties": {
        "OBJECT_NAME": "KSLV-II R/B",
        "OBJECT_ID": "2025-274P",
        "EPOCH": "2025-11-29T20:38:18.155040",
        "MEAN_MOTION": 14.97223001,
        "ECCENTRICITY": 0.0044184,
        "INCLINATION": 97.7386,
        "RA_OF_ASC_NODE": 261.3266,
        "ARG_OF_PERICENTER": 1.5638,
        "MEAN_ANOMALY": 358.5714,
        "EPHEMERIS_TYPE": 0,
        "CLASSIFICATION_TYPE": "U",
        "NORAD_CAT_ID": 66663,
        "ELEMENT_SET_NO": 999,
        "REV_AT_EPOCH": 48,
        "BSTAR": 6.6213e-05,
        "MEAN_MOTION_DOT": 7.2e-06,
        "MEAN_MOTION_DDOT": 0,
        "norad_id": 66663,
        "name": "KSLV-II R/B",
        "group": "last-30-days",
        "longitude_deg": NaN,
        "latitude_deg": NaN,
        "alt_km": NaN,
        "orbit_class": "HEO",
        "timestamp": "2025-11-30T04:52:16.835702+00:00"
      },
      "geometry": {
        "type": "Point",
        "coordinates": [
          NaN,
          NaN
        ]
      }
    }
  ]
}